{
  "type": "FeatureCollection",
  "features": [
    {
      "type": "Feature",
      "properties": {
        "norad_id": 43207,
        "name": "BEIDOU-3 M4 (C22)",
        "group": "beidou",
        "lat": 56.09827716283337,
        "lon": 169.17331905144562,
        "alt_km": 21522.018414102284,
        "timestamp": "2025-12-21T14:40:48.181943+00:00",
        "meta_object_name": "BEIDOU-3 M4 (C22)",
        "meta_object_id": "2018-018A",
        "meta_epoch": "2025-12-20T09:29:07.105632",
        "meta_mean_motion": 1.86231247,
        "meta_eccentricity": 0.0004167,
        "meta_inclination": 56.4917,
        "meta_ra_of_asc_node": 69.0512,
        "meta_arg_of_pericenter": 3.4046,
        "meta_mean_anomaly": 356.639,
        "meta_ephemeris_type": 0,
        "meta_classification_type": "U",
        "meta_norad_cat_id": 43207,
        "meta_element_set_no": 999,
        "meta_rev_at_epoch": 5341,
        "meta_bstar": 0,
        "meta_mean_motion_dot": -4.3e-07,
        "meta_mean_motion_ddot": 0,
        "tle_line1": "1 43207U 18018A   25354.39522113 -.00000043  00000+0  00000+0 0  9995",
        "tle_line2": "2 43207  56.4917  69.0512 0004167   3.4046 356.6390  1.86231247 53417"
      },
      "geometry": {
        "type": "Point",
        "coordinates": [
          169.17331905144562,
          56.09827716283337
        ]
      }
    },
    {
      "type": "Feature",
      "properties": {
        "norad_id": 43208,
        "name": "BEIDOU-3 M3 (C21)",
        "group": "beidou",
        "lat": 40.40405400883014,
        "lon": 103.30267305806488,
        "alt_km": 21525.573031417072,
        "timestamp": "2025-12-21T14:40:48.181954+00:00",
        "meta_object_name": "BEIDOU-3 M3 (C21)",
        "meta_object_id": "2018-018B",
        "meta_epoch": "2025-12-19T09:18:26.987040",
        "meta_mean_motion": 1.8623146,
        "meta_eccentricity": 0.0007021,
        "meta_inclination": 56.4904,
        "meta_ra_of_asc_node": 69.0885,
        "meta_arg_of_pericenter": 313.7803,
        "meta_mean_anomaly": 46.1968,
        "meta_ephemeris_type": 0,
        "meta_classification_type": "U",
        "meta_norad_cat_id": 43208,
        "meta_element_set_no": 999,
        "meta_rev_at_epoch": 5339,
        "meta_bstar": 0,
        "meta_mean_motion_dot": -5.3e-07,
        "meta_mean_motion_ddot": 0,
        "tle_line1": "1 43208U 18018B   25353.38781235 -.00000053  00000+0  00000+0 0  9997",
        "tle_line2": "2 43208  56.4904  69.0885 0007021 313.7803  46.1968  1.86231460 53393"
      },
      "geometry": {
        "type": "Point",
        "coordinates": [
          103.30267305806488,
          40.40405400883014
        ]
      }
    },
    {
      "type": "Feature",
      "properties": {
        "norad_id": 43245,
        "name": "BEIDOU-3 M9 (C29)",
        "group": "beidou",
        "lat": -54.17392870141869,
        "lon": -150.73369740776596,
        "alt_km": 21530.256210832133,
        "timestamp": "2025-12-21T14:40:48.181965+00:00",
        "meta_object_name": "BEIDOU-3 M9 (C29)",
        "meta_object_id": "2018-029A",
        "meta_epoch": "2025-12-19T14:29:50.131680",
        "meta_mean_motion": 1.86228397,
        "meta_eccentricity": 0.00015252,
        "meta_inclination": 54.3596,
        "meta_ra_of_asc_node": 306.2287,
        "meta_arg_of_pericenter": 290.8433,
        "meta_mean_anomaly": 69.1316,
        "meta_ephemeris_type": 0,
        "meta_classification_type": "U",
        "meta_norad_cat_id": 43245,
        "meta_element_set_no": 999,
        "meta_rev_at_epoch": 5255,
        "meta_bstar": 0,
        "meta_mean_motion_dot": -7.4e-07,
        "meta_mean_motion_ddot": 0,
        "tle_line1": "1 43245U 18029A   25353.60405245 -.00000074  00000+0  00000+0 0  9992",
        "tle_line2": "2 43245  54.3596 306.2287 0001525 290.8433  69.1316  1.86228397 52551"
      },
      "geometry": {
        "type": "Point",
        "coordinates": [
          -150.73369740776596,
          -54.17392870141869
        ]
      }
    },
    {
      "type": "Feature",
      "properties": {
        "norad_id": 43246,
        "name": "BEIDOU-3 M10 (C30)",
        "group": "beidou",
        "lat": -38.913767568556366,
        "lon": -89.1949326283247,
        "alt_km": 21525.862528938662,
        "timestamp": "2025-12-21T14:40:48.181976+00:00",
        "meta_object_name": "BEIDOU-3 M10 (C30)",
        "meta_object_id": "2018-029B",
        "meta_epoch": "2025-12-21T03:36:13.523328",
        "meta_mean_motion": 1.86229206,
        "meta_eccentricity": 0.00042584,
        "meta_inclination": 54.3552,
        "meta_ra_of_asc_node": 306.2013,
        "meta_arg_of_pericenter": 3.3381,
        "meta_mean_anomaly": 356.6612,
        "meta_ephemeris_type": 0,
        "meta_classification_type": "U",
        "meta_norad_cat_id": 43246,
        "meta_element_set_no": 999,
        "meta_rev_at_epoch": 5256,
        "meta_bstar": 0,
        "meta_mean_motion_dot": -6.3e-07,
        "meta_mean_motion_ddot": 0,
        "tle_line1": "1 43246U 18029B   25355.15015652 -.00000063  00000+0  00000+0 0  9992",
        "tle_line2": "2 43246  54.3552 306.2013 0004258   3.3381 356.6612  1.86229206 52560"
      },
      "geometry": {
        "type": "Point",
        "coordinates": [
          -89.1949326283247,
          -38.913767568556366
        ]
      }
    },
    {
      "type": "Feature",
      "properties": {
        "norad_id": 43539,
        "name": "BEIDOU-2 IGSO-7 (C16)",
        "group": "beidou",
        "lat": -53.00860484173549,
        "lon": 52.3068185148667,
        "alt_km": 35433.17095546845,
        "timestamp": "2025-12-21T14:40:48.181988+00:00",
        "meta_object_name": "BEIDOU-2 IGSO-7 (C16)",
        "meta_object_id": "2018-057A",
        "meta_epoch": "2025-12-15T07:47:07.120608",
        "meta_mean_motion": 1.00256546,
        "meta_eccentricity": 0.00926218,
        "meta_inclination": 55.1766,
        "meta_ra_of_asc_node": 164.6485,
        "meta_arg_of_pericenter": 235.2644,
        "meta_mean_anomaly": 271.8458,
        "meta_ephemeris_type": 0,
        "meta_classification_type": "U",
        "meta_norad_cat_id": 43539,
        "meta_element_set_no": 999,
        "meta_rev_at_epoch": 2728,
        "meta_bstar": 0,
        "meta_mean_motion_dot": -2.3e-07,
        "meta_mean_motion_ddot": 0,
        "tle_line1": "1 43539U 18057A   25349.32438797 -.00000023  00000+0  00000+0 0  9995",
        "tle_line2": "2 43539  55.1766 164.6485 0092621 235.2644 271.8458  1.00256546 27289"
      },
      "geometry": {
        "type": "Point",
        "coordinates": [
          52.3068185148667,
          -53.00860484173549
        ]
      }
    },
    {
      "type": "Feature",
      "properties": {
        "norad_id": 43581,
        "name": "BEIDOU-3 M5 (C23)",
        "group": "beidou",
        "lat": 16.959367720021543,
        "lon": -4.428168672930166,
        "alt_km": 21531.241487413696,
        "timestamp": "2025-12-21T14:40:48.182000+00:00",
        "meta_object_name": "BEIDOU-3 M5 (C23)",
        "meta_object_id": "2018-062A",
        "meta_epoch": "2025-12-20T20:06:28.321920",
        "meta_mean_motion": 1.86228978,
        "meta_eccentricity": 0.00019384,
        "meta_inclination": 54.0899,
        "meta_ra_of_asc_node": 188.3678,
        "meta_arg_of_pericenter": 1.5281,
        "meta_mean_anomaly": 358.5256,
        "meta_ephemeris_type": 0,
        "meta_classification_type": "U",
        "meta_norad_cat_id": 43581,
        "meta_element_set_no": 999,
        "meta_rev_at_epoch": 5031,
        "meta_bstar": 0,
        "meta_mean_motion_dot": 9.5e-07,
        "meta_mean_motion_ddot": 0,
        "tle_line1": "1 43581U 18062A   25354.83782780  .00000095  00000+0  00000+0 0  9992",
        "tle_line2": "2 43581  54.0899 188.3678 0001938   1.5281 358.5256  1.86228978 50311"
      },
      "geometry": {
        "type": "Point",
        "coordinates": [
          -4.428168672930166,
          16.959367720021543
        ]
      }
    },
    {
      "type": "Feature",
      "properties": {
        "norad_id": 43582,
        "name": "BEIDOU-3 M6 (C24)",
        "group": "beidou",
        "lat": -49.83538648659193,
        "lon": 67.55219471447914,
        "alt_km": 21553.930357553723,
        "timestamp": "2025-12-21T14:40:48.182012+00:00",
        "meta_object_name": "BEIDOU-3 M6 (C24)",
        "meta_object_id": "2018-062B",
        "meta_epoch": "2025-12-20T16:49:14.112192",
        "meta_mean_motion": 1.86229946,
        "meta_eccentricity": 0.00078563,
        "meta_inclination": 54.0894,
        "meta_ra_of_asc_node": 188.3615,
        "meta_arg_of_pericenter": 48.1727,
        "meta_mean_anomaly": 311.9483,
        "meta_ephemeris_type": 0,
        "meta_classification_type": "U",
        "meta_norad_cat_id": 43582,
        "meta_element_set_no": 999,
        "meta_rev_at_epoch": 5031,
        "meta_bstar": 0,
        "meta_mean_motion_dot": 9.6e-07,
        "meta_mean_motion_ddot": 0,
        "tle_line1": "1 43582U 18062B   25354.70085778  .00000096  00000+0  00000+0 0  9993",
        "tle_line2": "2 43582  54.0894 188.3615 0007856  48.1727 311.9483  1.86229946 50316"
      },
      "geometry": {
        "type": "Point",
        "coordinates": [
          67.55219471447914,
          -49.83538648659193
        ]
      }
    }
  ]
}